{
    "links": {
        "self": "http://www.neowsapp.com/rest/v1/neo/3582141?api_key=iIulBulltgU6a56xZRHN4H3l9WmuAYTsLGpBGhQ2"
    },
    "id": "3582141",
    "neo_reference_id": "3582141",
    "name": "(2011 UP20)",
    "designation": "2011 UP20",
    "nasa_jpl_url": "http://ssd.jpl.nasa.gov/sbdb.cgi?sstr=3582141",
    "absolute_magnitude_h": 22.7,
    "estimated_diameter": {
        "kilometers": {
            "estimated_diameter_min": 0.0766575574,
            "estimated_diameter_max": 0.1714115092
        },
        "meters": {
            "estimated_diameter_min": 76.6575573531,
            "estimated_diameter_max": 171.4115092306
        },
        "miles": {
            "estimated_diameter_min": 0.0476327831,
            "estimated_diameter_max": 0.1065101409
        },
        "feet": {
            "estimated_diameter_min": 251.5011804664,
            "estimated_diameter_max": 562.3737359442
        }
    },
    "is_potentially_hazardous_asteroid": false,
    "close_approach_data": [
        {
            "close_approach_date": "2011-09-26",
            "close_approach_date_full": "2011-Sep-26 00:07",
            "epoch_date_close_approach": 1316995620000,
            "relative_velocity": {
                "kilometers_per_second": "4.4197067968",
                "kilometers_per_hour": "15910.944468357",
                "miles_per_hour": "9886.4421336855"
            },
            "miss_distance": {
                "astronomical": "0.2669763223",
                "lunar": "103.8537893747",
                "kilometers": "39939089.156513501",
                "miles": "24816999.2223122738"
            },
            "orbiting_body": "Earth"
        }
    ],
    "orbital_data": {
        "orbit_id": "6",
        "orbit_determination_date": "2017-04-06 08:52:24",
        "first_observation_date": "2011-10-19",
        "last_observation_date": "2011-11-02",
        "data_arc_in_days": 14,
        "observations_used": 19,
        "orbit_uncertainty": "8",
        "minimum_orbit_intersection": ".234851",
        "jupiter_tisserand_invariant": "4.171",
        "epoch_osculation": "2455855.5",
        "eccentricity": ".2904809406941702",
        "semi_major_axis": "1.678730105342304",
        "inclination": "9.581996452865612",
        "ascending_node_longitude": "36.63147887527239",
        "orbital_period": "794.4558094926609",
        "perihelion_distance": "1.191091005170848",
        "perihelion_argument": "299.0434629862979",
        "aphelion_distance": "2.16636920551376",
        "perihelion_time": "2455792.899659385681",
        "mean_anomaly": "28.36674155047893",
        "mean_motion": ".4531403706769994",
        "equinox": "J2000",
        "orbit_class": {
            "orbit_class_type": "AMO",
            "orbit_class_description": "Near-Earth asteroid orbits similar to that of 1221 Amor",
            "orbit_class_range": "1.017 AU < q (perihelion) < 1.3 AU"
        }
    },
    "is_sentry_object": false
}